ONEWEB-0578             
1 56067U 23043X   24126.31892892  .00000117  00000+0  25063-3 0  9990
2 56067  87.9319  37.8094 0002014  76.0540 284.0818 13.21824674 56137
ONEWEB-0579             
1 56068U 23043Y   24126.23376308  .00000124  00000+0  26819-3 0  9999
2 56068  87.9315  37.8251 0001654  91.0726 269.0598 13.21824656 56139
ONEWEB-0581             
1 56069U 23043Z   24126.26118382 -.00000002  00000+0 -37580-4 0  9994
2 56069  87.9146  22.6524 0001268  70.6784 289.4484 13.16596483 57257
ONEWEB-0609             
1 56070U 23043AA  24126.28917404 -.00000441  00000+0 -12063-2 0  9994
2 56070  87.9049  53.0217 0001971  81.3199 278.8155 13.15548827 54812
ONEWEB-0613             
1 56071U 23043AB  24126.36049645 -.00000107  00000+0 -31847-3 0  9998
2 56071  87.9056  53.0022 0001823  90.7449 269.3891 13.15549755 54827
ONEWEB-0630             
1 56072U 23043AC  24126.35573474 -.00000125  00000+0 -36599-3 0  9999
2 56072  87.9051  52.9952 0002019  91.8584 268.2777 13.15550246 54810
ONEWEB-0632             
1 56073U 23043AD  24126.35097998 -.00000088  00000+0 -26734-3 0  9990
2 56073  87.9053  53.0147 0001514  78.2581 281.8720 13.15549977 54814
ONEWEB-0633             
1 56074U 23043AE  24126.34463575  .00000079  00000+0  17475-3 0  9998
2 56074  87.9049  52.9995 0002181  95.5804 264.5575 13.15550933 54797
